EPOCH,NORAD_CAT_ID,MEAN_MOTION,ECCENTRICITY,INCLINATION,RA_OF_ASC_NODE,ARG_OF_PERICENTER,MEAN_ANOMALY,MEAN_MOTION_DOT,BSTAR,TLE_LINE1,TLE_LINE2
2023-05-29 03:04:48,50803,15.08847698,0.0001229,53.2178,48.149,97.4032,262.71,0.00002273,0.0001608,1 50803U 22001A   23149.12834242  .00002273  00000-0  16080-3 0  9998,2 50803  53.2178  48.1490 0001229  97.4032 262.7100 15.08847698 77096
2023-05-29 17:23:18,50803,15.08844816,0.000157,53.2185,45.4679,104.2842,255.8324,-0.00002335,-0.00012863,1 50803U 22001A   23149.72451486 -.00002335  00000-0 -12863-3 0  9995,2 50803  53.2185  45.4679 0001570 104.2842 255.8324 15.08844816 78459
2023-05-29 20:34:04,50803,15.08833619,0.0001178,53.2178,44.8785,86.098,274.0147,-0.00000745,-0.000028727,1 50803U 22001A   23149.85699724 -.00000745  00000-0 -28727-4 0  9998,2 50803  53.2178  44.8785 0001178  86.0980 274.0147 15.08833619 77203
2023-05-29 23:44:50,50803,15.08834859,0.0001158,53.2176,44.2844,88.0806,272.0319,-0.00000485,-0.00001237,1 50803U 22001A   23149.98947634 -.00000485  00000-0 -12370-4 0  9996,2 50803  53.2176  44.2844 0001158  88.0806 272.0319 15.08834859 77226
2023-05-30 22:00:13,50803,15.08850311,0.0001229,53.2174,40.1209,85.2325,274.8807,0.0000289,0.00019953,1 50803U 22001A   23150.91682661  .00002890  00000-0  19953-3 0  9990,2 50803  53.2174  40.1209 0001229  85.2325 274.8807 15.08850311 77366
2023-05-30 23:35:36,50803,15.08853776,0.0001193,53.2172,39.8242,84.6239,275.489,0.00003917,0.00026393,1 50803U 22001A   23150.98306494  .00003917  00000-0  26393-3 0  9991,2 50803  53.2172  39.8242 0001193  84.6239 275.4890 15.08853776 78642
2023-05-31 02:46:22,50803,15.08857322,0.000118,53.2173,39.2292,84.1173,275.9954,0.00004836,0.00032157,1 50803U 22001A   23151.11554311  .00004836  00000-0  32157-3 0  9996,2 50803  53.2173  39.2292 0001180  84.1173 275.9954 15.08857322 77398
2023-05-31 21:51:01,50803,15.08844001,0.000122,53.2173,35.6608,91.8051,268.3081,0.0000215,0.00015314,1 50803U 22001A   23151.91042980  .00002150  00000-0  15314-3 0  9991,2 50803  53.2173  35.6608 0001220  91.8051 268.3081 15.08844001 77515
2023-06-01 02:37:10,50803,15.08853744,0.000114,53.2171,34.7693,90.291,269.8213,0.00005261,0.00034828,1 50803U 22001A   23152.10914601  .00005261  00000-0  34828-3 0  9998,2 50803  53.2171  34.7693 0001140  90.2910 269.8213 15.08853744 78816
2023-06-01 02:37:10,50803,15.08853744,0.000114,53.2171,34.7693,90.291,269.8213,0.00005261,0.00034828,1 50803U 22001A   23152.10914601  .00005261  00000-0  34828-3 0  9998,2 50803  53.2171  34.7693 0001140  90.2910 269.8213 15.08853744 77545
2023-06-02 00:52:34,50803,15.08840367,0.0001177,53.217,30.606,94.1013,266.0113,-0.00000425,-0.0000086391,1 50803U 22001A   23153.03650984 -.00000425  00000-0 -86391-5 0  9995,2 50803  53.2170  30.6060 0001177  94.1013 266.0113 15.08840367 78955
2023-06-02 00:52:34,50803,15.08840367,0.0001177,53.217,30.606,94.1013,266.0113,-0.00000425,-0.0000086391,1 50803U 22001A   23153.03650984 -.00000425  00000-0 -86391-5 0  9995,2 50803  53.2170  30.6060 0001177  94.1013 266.0113 15.08840367 77684
2023-06-02 21:32:35,50803,15.08836965,0.0001176,53.2173,26.7387,92.6647,267.4479,0.00000565,0.000053587,1 50803U 22001A   23153.89763471  .00000565  00000-0  53587-4 0  9998,2 50803  53.2173  26.7387 0001176  92.6647 267.4479 15.08836965 77814
2023-06-03 00:43:21,50803,15.08841381,0.0001169,53.2168,26.1453,104.6412,255.471,0.00000989,0.000080206,1 50803U 22001A   23154.03011326  .00000989  00000-0  80206-4 0  9998,2 50803  53.2168  26.1453 0001169 104.6412 255.4710 15.08841381 77837
2023-06-03 21:23:22,50803,15.08839149,0.0001221,53.2173,22.2781,104.8527,255.26,0.00002492,0.00017462,1 50803U 22001A   23154.89123735  .00002492  00000-0  17462-3 0  9994,2 50803  53.2173  22.2781 0001221 104.8527 255.2600 15.08839149 77961
2023-06-04 00:34:09,50803,15.08841959,0.0001234,53.2174,21.6828,105.1374,254.9754,0.00003071,0.00021097,1 50803U 22001A   23155.02371624  .00003071  00000-0  21097-3 0  9995,2 50803  53.2174  21.6828 0001234 105.1374 254.9754 15.08841959 77985
2023-06-04 00:34:09,50803,15.08841959,0.0001234,53.2174,21.6828,105.1374,254.9754,0.00003071,0.00021097,1 50803U 22001A   23155.02371624  .00003071  00000-0  21097-3 0  9995,2 50803  53.2174  21.6828 0001234 105.1374 254.9754 15.08841959 79257
2023-06-04 19:38:46,50803,15.08840463,0.000119,53.2174,18.1142,103.6156,256.4968,0.00001383,0.00010493,1 50803U 22001A   23155.81859874  .00001383  00000-0  10493-3 0  9992,2 50803  53.2174  18.1142 0001190 103.6156 256.4968 15.08840463 79375
2023-06-04 21:14:09,50803,15.08842194,0.0001211,53.2168,17.8175,107.8928,252.2196,0.00001808,0.00013162,1 50803U 22001A   23155.88483788  .00001808  00000-0  13162-3 0  9994,2 50803  53.2168  17.8175 0001211 107.8928 252.2196 15.08842194 78118
2023-06-05 09:57:15,50803,15.08841496,0.0001137,53.2166,15.4399,92.2892,267.823,0.00001598,0.00011844,1 50803U 22001A   23156.41475864  .00001598  00000-0  11844-3 0  9991,2 50803  53.2166  15.4399 0001137  92.2892 267.8230 15.08841496 78195
2023-06-05 21:04:56,50803,15.08848955,0.0001085,53.2166,13.3585,87.8551,272.2566,0.00001394,0.00010562,1 50803U 22001A   23156.87843494  .00001394  00000-0  10562-3 0  9999,2 50803  53.2166  13.3585 0001085  87.8551 272.2566 15.08848955 78260
2023-06-06 00:15:43,50803,15.08839995,0.0001199,53.2167,12.7628,94.9247,265.1882,0.00006816,0.00044594,1 50803U 22001A   23157.01091925  .00006816  00000-0  44594-3 0  9996,2 50803  53.2167  12.7628 0001199  94.9247 265.1882 15.08839995 79558
2023-06-06 09:48:01,50803,15.08840736,0.0001293,53.2163,10.9773,127.7745,232.3364,0.00001218,0.000094577,1 50803U 22001A   23157.40835623  .00001218  00000-0  94577-4 0  9998,2 50803  53.2163  10.9773 0001293 127.7745 232.3364 15.08840736 78340
2023-06-06 19:20:20,50803,15.08842267,0.0001117,53.2175,9.1946,102.6334,257.4783,0.00000217,0.00003169,1 50803U 22001A   23157.80579731  .00000217  00000-0  31690-4 0  9992,2 50803  53.2175   9.1946 0001117 102.6334 257.4783 15.08842267 78407
2023-06-07 09:38:49,50803,15.08835435,0.000106,53.2174,6.5201,95.9321,264.1792,-0.0000005,0.000014969,1 50803U 22001A   23158.40196233 -.00000050  00000-0  14969-4 0  9997,2 50803  53.2174   6.5201 0001060  95.9321 264.1792 15.08835435 79762
2023-06-07 09:38:49,50803,15.08835435,0.000106,53.2174,6.5201,95.9321,264.1792,-0.0000005,0.000014969,1 50803U 22001A   23158.40196233 -.00000050  00000-0  14969-4 0  9997,2 50803  53.2174   6.5201 0001060  95.9321 264.1792 15.08835435 78491
2023-06-07 20:46:31,50803,15.08839842,0.0001072,53.2174,4.4391,91.4792,268.6323,0.00000699,0.000061989,1 50803U 22001A   23158.86563953  .00000699  00000-0  61989-4 0  9996,2 50803  53.2174   4.4391 0001072  91.4792 268.6323 15.08839842 79838
2023-06-07 20:46:31,50803,15.08839842,0.0001072,53.2174,4.4391,91.4792,268.6323,0.00000699,0.000061989,1 50803U 22001A   23158.86563953  .00000699  00000-0  61989-4 0  9996,2 50803  53.2174   4.4391 0001072  91.4792 268.6323 15.08839842 78567
2023-06-08 23:48:03,50803,15.08849154,0.0001105,53.2171,359.384,97.985,262.1268,0.0000205,0.00014684,1 50803U 22001A   23159.99171267  .00002050  00000-0  14684-3 0  9996,2 50803  53.2171 359.3840 0001105  97.9850 262.1268 15.08849154 80004
2023-06-09 06:09:36,50803,15.0884586,0.0001078,53.2169,358.1946,97.4091,262.7024,0.00000576,0.000054267,1 50803U 22001A   23160.25667638  .00000576  00000-0  54267-4 0  9992,2 50803  53.2169 358.1946 0001078  97.4091 262.7024 15.08845860 80046
2023-06-09 06:09:36,50803,15.0884586,0.0001078,53.2169,358.1946,97.4091,262.7024,0.00000576,0.000054267,1 50803U 22001A   23160.25667638  .00000576  00000-0  54267-4 0  9992,2 50803  53.2169 358.1946 0001078  97.4091 262.7024 15.08845860 78773
2023-06-09 15:41:56,50803,15.08835933,0.0001099,53.2166,356.4108,92.5795,267.5323,0.00000009,0.000018627,1 50803U 22001A   23160.65412112  .00000009  00000-0  18627-4 0  9992,2 50803  53.2166 356.4108 0001099  92.5795 267.5323 15.08835933 80106
2023-06-09 15:41:56,50803,15.08835933,0.0001099,53.2166,356.4108,92.5795,267.5323,0.00000009,0.000018627,1 50803U 22001A   23160.65412112  .00000009  00000-0  18627-4 0  9992,2 50803  53.2166 356.4108 0001099  92.5795 267.5323 15.08835933 78833
2023-06-10 06:00:24,50803,15.08839911,0.0001145,53.2165,353.7338,94.402,265.7103,0.00000359,0.000040656,1 50803U 22001A   23161.25027922  .00000359  00000-0  40656-4 0  9995,2 50803  53.2165 353.7338 0001145  94.4020 265.7103 15.08839911 78927
2023-06-10 18:43:29,50803,15.08842297,0.0001163,53.2173,351.3542,90.7744,269.3381,-0.00000449,-0.000010138,1 50803U 22001A   23161.78020365 -.00000449  00000-0 -10138-4 0  9991,2 50803  53.2173 351.3542 0001163  90.7744 269.3381 15.08842297 80279
2023-06-11 12:12:44,50803,15.08836379,0.0001222,53.2173,348.0817,93.6406,266.4726,0.00000611,0.000056464,1 50803U 22001A   23162.50884630  .00000611  00000-0  56464-4 0  9996,2 50803  53.2173 348.0817 0001222  93.6406 266.4726 15.08836379 79116
2023-06-11 21:45:02,50803,15.08842448,0.0001232,53.2165,346.2979,103.1428,256.9701,0.00000714,0.000062931,1 50803U 22001A   23162.90628238  .00000714  00000-0  62931-4 0  9990,2 50803  53.2165 346.2979 0001232 103.1428 256.9701 15.08842448 80447
2023-06-11 21:45:02,50803,15.08842448,0.0001232,53.2165,346.2979,103.1428,256.9701,0.00000714,0.000062931,1 50803U 22001A   23162.90628238  .00000714  00000-0  62931-4 0  9990,2 50803  53.2165 346.2979 0001232 103.1428 256.9701 15.08842448 79175
2023-06-12 05:41:58,50803,15.08836954,0.000121,53.2167,344.8111,95.3325,264.7805,0.00002461,0.00017267,1 50803U 22001A   23163.23748418  .00002461  00000-0  17267-3 0  9992,2 50803  53.2167 344.8111 0001210  95.3325 264.7805 15.08836954 79226
2023-06-12 21:35:49,50803,15.08846293,0.0001234,53.2167,341.8379,89.6094,270.5039,0.00000863,0.000072282,1 50803U 22001A   23163.89988079  .00000863  00000-0  72282-4 0  9996,2 50803  53.2167 341.8379 0001234  89.6094 270.5039 15.08846293 79326
